{
  "norad_id": 39191,
  "name": "O3B PFM",
  "history": [
    {
      "epoch": "2026-03-21T21:17:09.784320Z",
      "apogee_km": 8073.567869150501,
      "perigee_km": 8058.183262486397,
      "latitude_deg": -0.005923051583009833,
      "longitude_deg": -138.69219828325143,
      "height_km": 8057.002317857054,
      "semi_major_axis_km": 14444.01256581845,
      "eccentricity": 0.00053256,
      "inclination_deg": 0.0686,
      "raan_deg": 5.4871,
      "arg_perigee_deg": 11.7167,
      "mean_anomaly_deg": 342.8128,
      "mean_motion_rev_day": 5.00116261
    },
    {
      "epoch": "2026-03-29T01:59:30.399936Z",
      "apogee_km": 8073.906135580758,
      "perigee_km": 8057.88770196484,
      "latitude_deg": -0.005698665109881131,
      "longitude_deg": 143.6291551009717,
      "height_km": 8057.315724582402,
      "semi_major_axis_km": 14444.033918772799,
      "eccentricity": 0.0005545,
      "inclination_deg": 0.0691,
      "raan_deg": 4.8412,
      "arg_perigee_deg": 23.4012,
      "mean_anomaly_deg": 331.783,
      "mean_motion_rev_day": 5.00115152
    },
    {
      "epoch": "2026-03-30T01:58:41.583072Z",
      "apogee_km": 8073.5708746673545,
      "perigee_km": 8058.187997163105,
      "latitude_deg": -0.00525202439338418,
      "longitude_deg": 142.84741522809574,
      "height_km": 8057.0682355144445,
      "semi_major_axis_km": 14444.01643591523,
      "eccentricity": 0.0005325,
      "inclination_deg": 0.0699,
      "raan_deg": 4.7041,
      "arg_perigee_deg": 13.9892,
      "mean_anomaly_deg": 341.3218,
      "mean_motion_rev_day": 5.0011606
    },
    {
      "epoch": "2026-03-30T06:46:32.145600Z",
      "apogee_km": 8073.560301768487,
      "perigee_km": 8058.199378739212,
      "latitude_deg": -0.0051272420417758195,
      "longitude_deg": 70.68965424354411,
      "height_km": 8057.088045969699,
      "semi_major_axis_km": 14444.01684025385,
      "eccentricity": 0.00053174,
      "inclination_deg": 0.0699,
      "raan_deg": 4.6739,
      "arg_perigee_deg": 14.2304,
      "mean_anomaly_deg": 341.111,
      "mean_motion_rev_day": 5.00116039
    },
    {
      "epoch": "2026-03-30T16:22:13.246464Z",
      "apogee_km": 8073.562324017431,
      "perigee_km": 8058.1979341169,
      "latitude_deg": -0.004871764695030787,
      "longitude_deg": -73.62551550541625,
      "height_km": 8057.099110934758,
      "semi_major_axis_km": 14444.017129067166,
      "eccentricity": 0.00053186,
      "inclination_deg": 0.0699,
      "raan_deg": 4.6205,
      "arg_perigee_deg": 14.5728,
      "mean_anomaly_deg": 340.8226,
      "mean_motion_rev_day": 5.00116024
    },
    {
      "epoch": "2026-03-31T01:57:54.271296Z",
      "apogee_km": 8073.573590090361,
      "perigee_km": 8058.184935164157,
      "latitude_deg": -0.0045856141202675095,
      "longitude_deg": 142.0595363327301,
      "height_km": 8057.083645966823,
      "semi_major_axis_km": 14444.01626262726,
      "eccentricity": 0.0005327,
      "inclination_deg": 0.0698,
      "raan_deg": 4.5605,
      "arg_perigee_deg": 14.5662,
      "mean_anomaly_deg": 340.8894,
      "mean_motion_rev_day": 5.00116069
    },
    {
      "epoch": "2026-04-02T16:19:51.404448Z",
      "apogee_km": 8073.58966165167,
      "perigee_km": 8058.170095872915,
      "latitude_deg": -0.0028467944673075183,
      "longitude_deg": -75.98974889118708,
      "height_km": 8057.183141957923,
      "semi_major_axis_km": 14444.016878762292,
      "eccentricity": 0.00053377,
      "inclination_deg": 0.0702,
      "raan_deg": 4.1875,
      "arg_perigee_deg": 17.3776,
      "mean_anomaly_deg": 338.4551,
      "mean_motion_rev_day": 5.00116037
    },
    {
      "epoch": "2026-04-04T16:18:16.780032Z",
      "apogee_km": 8073.67512202564,
      "perigee_km": 8058.084250414532,
      "latitude_deg": -0.001923974541911792,
      "longitude_deg": -77.56586089873232,
      "height_km": 8057.141479508313,
      "semi_major_axis_km": 14444.016686220086,
      "eccentricity": 0.0005397,
      "inclination_deg": 0.0702,
      "raan_deg": 3.8532,
      "arg_perigee_deg": 18.4548,
      "mean_anomaly_deg": 337.714,
      "mean_motion_rev_day": 5.00116047
    },
    {
      "epoch": "2026-04-05T01:53:57.706368Z",
      "apogee_km": 8073.679050673695,
      "perigee_km": 8058.079513089263,
      "latitude_deg": -0.001825204011591565,
      "longitude_deg": 138.11963572171638,
      "height_km": 8057.056947781636,
      "semi_major_axis_km": 14444.016281881479,
      "eccentricity": 0.00054,
      "inclination_deg": 0.0701,
      "raan_deg": 3.8026,
      "arg_perigee_deg": 16.8934,
      "mean_anomaly_deg": 339.3246,
      "mean_motion_rev_day": 5.00116068
    },
    {
      "epoch": "2026-04-05T21:05:19.893408Z",
      "apogee_km": 8073.640523591211,
      "perigee_km": 8058.117539562073,
      "latitude_deg": -0.0016501868235458263,
      "longitude_deg": -150.5107667098319,
      "height_km": 8057.159543220283,
      "semi_major_axis_km": 14444.01603157664,
      "eccentricity": 0.00053735,
      "inclination_deg": 0.0702,
      "raan_deg": 3.6487,
      "arg_perigee_deg": 18.3995,
      "mean_anomaly_deg": 337.974,
      "mean_motion_rev_day": 5.00116081
    },
    {
      "epoch": "2026-04-07T16:15:54.698688Z",
      "apogee_km": 8074.325124079335,
      "perigee_km": 8057.445839407169,
      "latitude_deg": -0.001829379314180295,
      "longitude_deg": -79.9290029892418,
      "height_km": 8056.377982385673,
      "semi_major_axis_km": 14444.022481743252,
      "eccentricity": 0.0005843,
      "inclination_deg": 0.0698,
      "raan_deg": 3.6054,
      "arg_perigee_deg": 15.3404,
      "mean_anomaly_deg": 341.0753,
      "mean_motion_rev_day": 5.00115746
    },
    {
      "epoch": "2026-04-08T11:27:16.934976Z",
      "apogee_km": 8073.7413624484625,
      "perigee_km": 8058.019049719641,
      "latitude_deg": -0.0013245561578775367,
      "longitude_deg": -8.559827509589265,
      "height_km": 8057.178728976077,
      "semi_major_axis_km": 14444.017206084052,
      "eccentricity": 0.00054425,
      "inclination_deg": 0.0704,
      "raan_deg": 3.0262,
      "arg_perigee_deg": 21.062,
      "mean_anomaly_deg": 335.9366,
      "mean_motion_rev_day": 5.0011602
    },
    {
      "epoch": "2026-04-09T11:26:29.599008Z",
      "apogee_km": 8073.696422022514,
      "perigee_km": 8058.062218757322,
      "latitude_deg": -0.0014163851809176258,
      "longitude_deg": -9.347598006852412,
      "height_km": 8057.290463082942,
      "semi_major_axis_km": 14444.016320389917,
      "eccentricity": 0.0005412,
      "inclination_deg": 0.0704,
      "raan_deg": 2.9374,
      "arg_perigee_deg": 22.4182,
      "mean_anomaly_deg": 334.6705,
      "mean_motion_rev_day": 5.00116066
    },
    {
      "epoch": "2026-04-10T06:37:51.707424Z",
      "apogee_km": 8073.710403687045,
      "perigee_km": 8058.047312890317,
      "latitude_deg": -0.0014691307644889102,
      "longitude_deg": 62.02207919809116,
      "height_km": 8057.305156105468,
      "semi_major_axis_km": 14444.015858288682,
      "eccentricity": 0.0005422,
      "inclination_deg": 0.0703,
      "raan_deg": 2.8875,
      "arg_perigee_deg": 22.9466,
      "mean_anomaly_deg": 334.1925,
      "mean_motion_rev_day": 5.0011609
    },
    {
      "epoch": "2026-04-11T11:24:54.936576Z",
      "apogee_km": 8073.723807859494,
      "perigee_km": 8058.034717395026,
      "latitude_deg": -0.00140171685176921,
      "longitude_deg": -10.92346553630754,
      "height_km": 8057.341697055445,
      "semi_major_axis_km": 14444.01626262726,
      "eccentricity": 0.0005431,
      "inclination_deg": 0.0703,
      "raan_deg": 2.7924,
      "arg_perigee_deg": 23.8374,
      "mean_anomaly_deg": 333.3979,
      "mean_motion_rev_day": 5.00116069
    },
    {
      "epoch": "2026-04-12T20:59:48.666048Z",
      "apogee_km": 8073.74133314568,
      "perigee_km": 8058.016421940115,
      "latitude_deg": -0.001047063496995722,
      "longitude_deg": -156.0264216742228,
      "height_km": 8057.3838917595895,
      "semi_major_axis_km": 14444.015877542897,
      "eccentricity": 0.00054434,
      "inclination_deg": 0.0702,
      "raan_deg": 2.6786,
      "arg_perigee_deg": 24.8989,
      "mean_anomaly_deg": 332.4517,
      "mean_motion_rev_day": 5.00116089
    },
    {
      "epoch": "2026-04-14T11:22:32.973600Z",
      "apogee_km": 8073.640552267708,
      "perigee_km": 8058.116124581967,
      "latitude_deg": -0.0010860749274625519,
      "longitude_deg": -13.287308741373918,
      "height_km": 8057.607796472514,
      "semi_major_axis_km": 14444.015338424837,
      "eccentricity": 0.0005374,
      "inclination_deg": 0.0695,
      "raan_deg": 3.2315,
      "arg_perigee_deg": 26.4462,
      "mean_anomaly_deg": 330.3537,
      "mean_motion_rev_day": 5.00116117
    },
    {
      "epoch": "2026-04-15T16:09:37.649952Z",
      "apogee_km": 8073.068783464573,
      "perigee_km": 8058.70564578555,
      "latitude_deg": -0.0006708008435651552,
      "longitude_deg": -86.23891490550886,
      "height_km": 8060.260921765016,
      "semi_major_axis_km": 14444.02421462506,
      "eccentricity": 0.0004972,
      "inclination_deg": 0.0693,
      "raan_deg": 3.39,
      "arg_perigee_deg": 51.8123,
      "mean_anomaly_deg": 304.8459,
      "mean_motion_rev_day": 5.00115656
    },
    {
      "epoch": "2026-04-16T16:08:50.176608Z",
      "apogee_km": 8073.393368211285,
      "perigee_km": 8058.371587954079,
      "latitude_deg": -0.00018883665457991637,
      "longitude_deg": -87.02619586702015,
      "height_km": 8060.32179061033,
      "semi_major_axis_km": 14444.01947808268,
      "eccentricity": 0.00052,
      "inclination_deg": 0.0692,
      "raan_deg": 3.3868,
      "arg_perigee_deg": 54.1483,
      "mean_anomaly_deg": 302.5169,
      "mean_motion_rev_day": 5.00115902
    }
  ]
}